NORAD_CAT_ID,OBJECT_NAME,OBJECT_TYPE,EPOCH,MEAN_MOTION,ECCENTRICITY,INCLINATION,RA_OF_ASC_NODE,ARG_OF_PERICENTER,MEAN_ANOMALY,BSTAR,MEAN_MOTION_DOT,MEAN_MOTION_DDOT,TLE_LINE0,TLE_LINE1,TLE_LINE2,SEMIMAJOR_AXIS,PERIOD,APOGEE,PERIGEE,DECAYED
53180.0,STARLINK-4258,PAYLOAD,2023-02-23 12:14:55,15.08846625,0.0001439,53.2184,67.6993,102.5174,257.5979,0.00032344,4.864e-05,0.0,0 STARLINK-4258,1 53180U 22083BA  23054.51036188  .00004864  00000-0  32344-3 0  9999,2 53180  53.2184  67.6993 0001439 102.5174 257.5979 15.08846625 34319,6917.86,95.437,540.721,538.73,0.0
53180.0,STARLINK-4258,PAYLOAD,2023-02-24 00:58:00,15.08841671,0.0001559,53.2188,65.3189,106.8936,253.2227,0.00026854,3.989e-05,0.0,0 STARLINK-4258,1 53180U 22083BA  23055.04028447  .00003989  00000-0  26854-3 0  9993,2 53180  53.2188  65.3189 0001559 106.8936 253.2227 15.08841671 35036,6917.875,95.437,540.819,538.662,0.0
53180.0,STARLINK-4258,PAYLOAD,2023-02-24 12:05:42,15.08852749,0.0001663,53.2183,63.2367,107.3846,252.7329,0.00040902,6.23e-05,0.0,0 STARLINK-4258,1 53180U 22083BA  23055.50395975  .00006230  00000-0  40902-3 0  9999,2 53180  53.2183  63.2367 0001663 107.3846 252.7329 15.08852749 34469,6917.841,95.437,540.857,538.556,0.0
53180.0,STARLINK-4258,PAYLOAD,2023-02-25 03:59:33,15.08839128,0.0001812,53.2179,60.2632,118.8007,241.3167,9.2917e-05,1.191e-05,0.0,0 STARLINK-4258,1 53180U 22083BA  23056.16636504  .00001191  00000-0  92917-4 0  9993,2 53180  53.2179  60.2632 0001812 118.8007 241.3167 15.08839128 35201,6917.883,95.438,541.002,538.495,0.0
53180.0,STARLINK-4258,PAYLOAD,2023-02-25 11:56:29,15.08844366,0.000134,53.219,58.7799,103.689,256.4251,0.00031198,4.681e-05,0.0,0 STARLINK-4258,1 53180U 22083BA  23056.49756473  .00004681  00000-0  31198-3 0  9997,2 53180  53.2190  58.7799 0001340 103.6890 256.4251 15.08844366 34613,6917.867,95.437,540.659,538.805,0.0
53180.0,STARLINK-4258,PAYLOAD,2023-02-25 16:42:38,15.08850197,0.0001316,53.2191,57.8883,104.7247,255.3891,0.00056529,8.723e-05,0.0,0 STARLINK-4258,1 53180U 22083BA  23056.69628343  .00008723  00000-0  56529-3 0  9999,2 53180  53.2191  57.8883 0001316 104.7247 255.3891 15.08850197 34649,6917.849,95.437,540.625,538.804,0.0
53180.0,STARLINK-4258,PAYLOAD,2023-02-26 11:47:37,15.08290889,0.0001873,53.218,54.3168,125.9226,234.194,-0.011107,-0.00170333,0.0,0 STARLINK-4258,1 53180U 22083BA  23057.49141098 -.00170333  00000-0 -11107-1 0  9995,2 53180  53.2180  54.3168 0001873 125.9226 234.1940 15.08290889 35406,6919.559,95.472,542.72,540.128,0.0
53180.0,STARLINK-4258,PAYLOAD,2023-02-26 13:23:04,15.0823402,0.0001602,53.2193,54.0235,112.1479,247.9683,-0.011646,-0.00178111,0.0,0 STARLINK-4258,1 53180U 22083BA  23057.55768742 -.00178111  00000-0 -11646-1 0  9993,2 53180  53.2193  54.0235 0001602 112.1479 247.9683 15.08234020 34770,6919.733,95.476,542.707,540.49,0.0
53180.0,STARLINK-4258,PAYLOAD,2023-02-26 16:33:56,15.08241315,0.0001444,53.2192,53.4299,102.1556,257.9597,-0.0091642,-0.00140969,0.0,0 STARLINK-4258,1 53180U 22083BA  23057.69023541 -.00140969  00000-0 -91642-2 0  9994,2 53180  53.2192  53.4299 0001444 102.1556 257.9597 15.08241315 35435,6919.711,95.475,542.575,540.577,0.0
53180.0,STARLINK-4258,PAYLOAD,2023-02-27 11:39:09,15.08100724,0.0001482,53.2192,49.865,88.9172,271.199,-0.0014264,-0.00022464,0.0,0 STARLINK-4258,1 53180U 22083BA  23058.48552829 -.00022464  00000-0 -14264-2 0  9992,2 53180  53.2192  49.8650 0001482  88.9172 271.1990 15.08100724 34917,6920.141,95.484,543.032,540.98,0.0
53180.0,STARLINK-4258,PAYLOAD,2023-02-27 16:25:25,15.08207535,0.0001399,53.2191,48.9726,109.9814,250.1329,0.0037316,0.00058571,0.0,0 STARLINK-4258,1 53180U 22083BA  23058.68432355  .00058571  00000-0  37316-2 0  9994,2 53180  53.2191  48.9726 0001399 109.9814 250.1329 15.08207535 35589,6919.814,95.478,542.647,540.711,0.0
53180.0,STARLINK-4258,PAYLOAD,2023-02-28 11:30:15,15.08693131,0.0001481,53.2194,45.4047,90.5107,269.6054,0.010435,0.00169119,0.0,0 STARLINK-4258,1 53180U 22083BA  23059.47934048  .00169119  00000-0  10435-1 0  9991,2 53180  53.2194  45.4047 0001481  90.5107 269.6054 15.08693131 35707,6918.329,95.447,541.219,539.17,0.0
53180.0,STARLINK-4258,PAYLOAD,2023-02-28 16:16:24,15.08738353,0.0001117,53.2201,44.5142,80.2719,279.8399,0.0066829,0.00107396,0.0,0 STARLINK-4258,1 53180U 22083BA  23059.67805845  .00107396  00000-0  66829-2 0  9993,2 53180  53.2201  44.5142 0001117  80.2719 279.8399 15.08738353 35096,6918.191,95.444,540.829,539.283,0.0
53180.0,STARLINK-4258,PAYLOAD,2023-03-01 03:24:06,15.08805928,0.0001237,53.2194,42.4326,89.6608,270.4526,0.0016143,0.00025473,0.0,0 STARLINK-4258,1 53180U 22083BA  23060.14173614  .00025473  00000-0  16143-2 0  9998,2 53180  53.2194  42.4326 0001237  89.6608 270.4526 15.08805928 35802,6917.985,95.44,540.705,538.994,0.0
53180.0,STARLINK-4258,PAYLOAD,2023-03-01 16:07:10,15.0884668,0.0001565,53.2178,40.0522,89.816,270.3012,0.00084543,0.00013195,0.0,0 STARLINK-4258,1 53180U 22083BA  23060.67165086  .00013195  00000-0  84543-3 0  9998,2 53180  53.2178  40.0522 0001565  89.8160 270.3012 15.08846680 35882,6917.86,95.437,540.808,538.642,0.0
53180.0,STARLINK-4258,PAYLOAD,2023-03-02 03:14:52,15.08843495,0.0001629,53.2179,37.9692,92.8833,267.2346,0.00048267,7.403e-05,0.0,0 STARLINK-4258,1 53180U 22083BA  23061.13533322  .00007403  00000-0  48267-3 0  9990,2 53180  53.2179  37.9692 0001629  92.8833 267.2346 15.08843495 35952,6917.87,95.437,540.862,538.608,0.0
53180.0,STARLINK-4258,PAYLOAD,2023-03-02 08:01:01,15.08852131,0.0001656,53.2189,37.0773,101.1356,258.9822,0.00065867,0.00010214,0.0,0 STARLINK-4258,1 53180U 22083BA  23061.33405078  .00010214  00000-0  65867-3 0  9997,2 53180  53.2189  37.0773 0001656 101.1356 258.9822 15.08852131 35344,6917.843,95.437,540.854,538.563,0.0
53180.0,STARLINK-4258,PAYLOAD,2023-03-03 07:51:48,15.08871813,0.0001869,53.2199,32.6151,107.9004,252.2192,0.0009193,0.00014386,0.0,0 STARLINK-4258,1 53180U 22083BA  23062.32764000  .00014386  00000-0  91930-3 0  9994,2 53180  53.2199  32.6151 0001869 107.9004 252.2192 15.08871813 36139,6917.783,95.436,540.941,538.355,0.0
53180.0,STARLINK-4258,PAYLOAD,2023-03-04 04:31:48,15.08860406,8.06e-05,53.2211,28.7555,101.5574,258.5509,0.00032697,4.923e-05,0.0,0 STARLINK-4258,1 53180U 22083BA  23063.18875414  .00004923  00000-0  32697-3 0  9992,2 53180  53.2211  28.7555 0000806 101.5574 258.5509 15.08860406 36261,6917.818,95.436,540.241,539.125,0.0
53180.0,STARLINK-4258,PAYLOAD,2023-03-04 06:07:11,15.08874488,0.0001383,53.2194,28.4573,102.3599,257.7548,0.0013202,0.00020805,0.0,0 STARLINK-4258,1 53180U 22083BA  23063.25499236  .00020805  00000-0  13202-2 0  9991,2 53180  53.2194  28.4573 0001383 102.3599 257.7548 15.08874488 36275,6917.775,95.435,540.597,538.683,0.0
53180.0,STARLINK-4258,PAYLOAD,2023-03-04 22:01:03,15.08838096,0.0002157,53.2209,25.4822,99.292,260.8316,0.00059354,9.17e-05,0.0,0 STARLINK-4258,1 53180U 22083BA  23063.91739896  .00009170  00000-0  59354-3 0  9994,2 53180  53.2209  25.4822 0002157  99.2920 260.8316 15.08838096 35731,6917.886,95.438,541.243,538.259,0.0
53180.0,STARLINK-4258,PAYLOAD,2023-03-05 07:33:22,15.088383,0.0001369,53.2199,23.6977,83.6324,276.4824,0.0004741,7.265e-05,0.0,0 STARLINK-4258,1 53180U 22083BA  23064.31484269  .00007265  00000-0  47410-3 0  9993,2 53180  53.2199  23.6977 0001369  83.6324 276.4824 15.08838300 36432,6917.886,95.438,540.698,538.804,0.0
53180.0,STARLINK-4258,PAYLOAD,2023-03-06 02:38:00,15.08841116,0.0001702,53.2199,20.1305,86.8171,273.3016,0.00042663,6.509e-05,0.0,0 STARLINK-4258,1 53180U 22083BA  23065.10972712  .00006509  00000-0  42663-3 0  9991,2 53180  53.2199  20.1305 0001702  86.8171 273.3016 15.08841116 36556,6917.877,95.437,540.919,538.565,0.0
53180.0,STARLINK-4258,PAYLOAD,2023-03-06 05:48:46,15.08861865,0.0001428,53.2197,19.5362,100.1675,259.9478,0.0013047,0.0002055,0.0,0 STARLINK-4258,1 53180U 22083BA  23065.24220149  .00020550  00000-0  13047-2 0  9991,2 53180  53.2197  19.5362 0001428 100.1675 259.9478 15.08861865 36570,6917.814,95.436,540.666,538.691,0.0
53180.0,STARLINK-4258,PAYLOAD,2023-03-07 05:39:33,15.08844642,8.95e-05,53.2179,15.0724,81.4158,278.6935,0.00040137,6.107e-05,0.0,0 STARLINK-4258,1 53180U 22083BA  23066.23580912  .00006107  00000-0  40137-3 0  9991,2 53180  53.2179  15.0724 0000895  81.4158 278.6935 15.08844642 36724,6917.866,95.437,540.35,539.112,0.0
53180.0,STARLINK-4258,PAYLOAD,2023-03-08 02:19:34,15.08841621,7.23e-05,53.2166,11.2068,110.6538,249.4532,0.00018997,2.737e-05,0.0,0 STARLINK-4258,1 53180U 22083BA  23067.09692805  .00002737  00000-0  18997-3 0  9995,2 53180  53.2166  11.2068 0000723 110.6538 249.4532 15.08841621 36853,6917.875,95.437,540.241,539.24,0.0
53180.0,STARLINK-4258,PAYLOAD,2023-03-08 05:30:20,15.08861726,0.0001035,53.2186,10.6156,99.8176,260.2933,0.00077037,0.00012001,0.0,0 STARLINK-4258,1 53180U 22083BA  23067.22940332  .00012001  00000-0  77037-3 0  9996,2 53180  53.2186  10.6156 0001035  99.8176 260.2933 15.08861726 36875,6917.814,95.436,540.395,538.963,0.0
53180.0,STARLINK-4258,PAYLOAD,2023-03-08 19:48:49,15.08835584,0.0001442,53.2193,7.9379,84.8126,275.3031,2.036e-05,3.6e-07,0.0,0 STARLINK-4258,1 53180U 22083BA  23067.82557665  .00000036  00000-0  20360-4 0  9998,2 53180  53.2193   7.9379 0001442  84.8126 275.3031 15.08835584 36969,6917.894,95.438,540.756,538.761,0.0
53180.0,STARLINK-4258,PAYLOAD,2023-03-09 02:10:22,15.08843716,0.0001237,53.2189,6.7497,83.4041,276.7092,0.00022791,3.342e-05,0.0,0 STARLINK-4258,1 53180U 22083BA  23068.09053565  .00003342  00000-0  22791-3 0  9990,2 53180  53.2189   6.7497 0001237  83.4041 276.7092 15.08843716 37009,6917.869,95.437,540.59,538.878,0.0
53180.0,STARLINK-4258,PAYLOAD,2023-03-10 02:01:08,15.08872257,0.0001432,53.2187,2.2897,77.2816,282.8336,0.00089159,0.00013943,0.0,0 STARLINK-4258,1 53180U 22083BA  23069.08412618  .00013943  00000-0  89159-3 0  9997,2 53180  53.2187   2.2897 0001432  77.2816 282.8336 15.08872257 37157,6917.782,95.436,540.637,538.656,0.0
